[{"OBJECT_NAME":"KUIPER-00127","OBJECT_ID":"2025-228K","EPOCH":"2026-03-09T05:07:51.492288","MEAN_MOTION":14.76388152,"ECCENTRICITY":0.00012403,"INCLINATION":51.9017,"RA_OF_ASC_NODE":354.1221,"ARG_OF_PERICENTER":190.3744,"MEAN_ANOMALY":169.7192,"EPHEMERIS_TYPE":0,"CLASSIFICATION_TYPE":"U","NORAD_CAT_ID":65956,"ELEMENT_SET_NO":999,"REV_AT_EPOCH":2328,"BSTAR":0.00054618899,"MEAN_MOTION_DOT":3.617e-5,"MEAN_MOTION_DDOT":0},{"OBJECT_NAME":"FENGYUN 1C DEB","OBJECT_ID":"1999-025DMB","EPOCH":"2026-03-08T16:50:03.863040","MEAN_MOTION":14.76593215,"ECCENTRICITY":0.00269678,"INCLINATION":99.4755,"RA_OF_ASC_NODE":160.6814,"ARG_OF_PERICENTER":287.9701,"MEAN_ANOMALY":71.8565,"EPHEMERIS_TYPE":0,"CLASSIFICATION_TYPE":"U","NORAD_CAT_ID":35147,"ELEMENT_SET_NO":999,"REV_AT_EPOCH":75572,"BSTAR":0.0036377191,"MEAN_MOTION_DOT":0.00025572,"MEAN_MOTION_DDOT":0}]
